NORAD_CAT_ID,OBJECT_NAME,OBJECT_TYPE,EPOCH,MEAN_MOTION,ECCENTRICITY,INCLINATION,RA_OF_ASC_NODE,ARG_OF_PERICENTER,MEAN_ANOMALY,BSTAR,MEAN_MOTION_DOT,MEAN_MOTION_DDOT,TLE_LINE0,TLE_LINE1,TLE_LINE2,SEMIMAJOR_AXIS,PERIOD,APOGEE,PERIGEE,DECAYED
53154.0,STARLINK-4077,PAYLOAD,2023-02-10 16:53:42,15.08851336,9.89e-05,53.2156,165.3991,87.5829,272.5276,0.00013228,1.819e-05,0.0,0 STARLINK-4077,1 53154U 22083Y   23041.70396363  .00001819  00000-0  13228-3 0  9998,2 53154  53.2156 165.3991 0000989  87.5829 272.5276 15.08851336 32456,6917.846,95.437,540.395,539.027,0.0
53154.0,STARLINK-4077,PAYLOAD,2023-02-11 00:50:38,15.0883162,7.72e-05,53.2166,163.9121,59.3753,300.7315,0.00011249,1.503e-05,0.0,0 STARLINK-4077,1 53154U 22083Y   23042.03517151  .00001503  00000-0  11249-3 0  9996,2 53154  53.2166 163.9121 0000772  59.3753 300.7315 15.08831620 32507,6917.906,95.438,540.305,539.237,0.0
53154.0,STARLINK-4077,PAYLOAD,2023-02-11 10:22:58,15.08824369,0.000102,53.2168,162.129,64.2304,295.8794,-0.0001761,-3.088e-05,0.0,0 STARLINK-4077,1 53154U 22083Y   23042.43261866 -.00003088  00000-0 -17610-3 0  9999,2 53154  53.2168 162.1290 0001020  64.2304 295.8794 15.08824369 32564,6917.928,95.439,540.499,539.088,0.0
53154.0,STARLINK-4077,PAYLOAD,2023-02-11 13:33:44,15.08828984,0.0001095,53.2157,161.5354,71.9342,288.1769,-4.5085e-05,-1.005e-05,0.0,0 STARLINK-4077,1 53154U 22083Y   23042.56509866 -.00001005  00000-0 -45085-4 0  9993,2 53154  53.2157 161.5354 0001095  71.9342 288.1769 15.08828984 31951,6917.914,95.438,540.537,539.022,0.0
53154.0,STARLINK-4077,PAYLOAD,2023-02-11 18:19:53,15.08847089,0.0001039,53.2167,160.6409,62.8244,297.2854,0.00028764,4.294e-05,0.0,0 STARLINK-4077,1 53154U 22083Y   23042.76381180  .00004294  00000-0  28764-3 0  9997,2 53154  53.2167 160.6409 0001039  62.8244 297.2854 15.08847089 32618,6917.859,95.437,540.442,539.005,0.0
53154.0,STARLINK-4077,PAYLOAD,2023-02-11 19:55:16,15.08855488,0.0001101,53.2167,160.3451,61.2699,298.8404,0.00045686,6.994e-05,0.0,0 STARLINK-4077,1 53154U 22083Y   23042.83004878  .00006994  00000-0  45686-3 0  9992,2 53154  53.2167 160.3451 0001101  61.2699 298.8404 15.08855488 31999,6917.833,95.437,540.46,538.936,0.0
53154.0,STARLINK-4077,PAYLOAD,2023-02-12 10:13:45,15.08832869,6.53e-05,53.2156,157.6669,63.5552,296.5507,9.7161e-05,1.259e-05,0.0,0 STARLINK-4077,1 53154U 22083Y   23043.42621984  .00001259  00000-0  97161-4 0  9996,2 53154  53.2156 157.6669 0000653  63.5552 296.5507 15.08832869 32719,6917.902,95.438,540.219,539.315,0.0
53154.0,STARLINK-4077,PAYLOAD,2023-02-12 11:49:08,15.08833639,0.0001002,53.216,157.3718,41.7348,318.3721,0.00010225,1.34e-05,0.0,0 STARLINK-4077,1 53154U 22083Y   23043.49246037  .00001340  00000-0  10225-3 0  9991,2 53154  53.2160 157.3718 0001002  41.7348 318.3721 15.08833639 32094,6917.9,95.438,540.458,539.072,0.0
53154.0,STARLINK-4077,PAYLOAD,2023-02-12 16:35:17,15.08852565,0.0001388,53.2171,156.4774,69.5065,290.6076,0.00034266,5.172e-05,0.0,0 STARLINK-4077,1 53154U 22083Y   23043.69117344  .00005172  00000-0  34266-3 0  9999,2 53154  53.2171 156.4774 0001388  69.5065 290.6076 15.08852565 32756,6917.842,95.437,540.667,538.747,0.0
53154.0,STARLINK-4077,PAYLOAD,2023-02-13 00:32:13,15.08826098,4.23e-05,53.216,154.9925,105.6676,254.4363,-0.00020654,-3.572e-05,0.0,0 STARLINK-4077,1 53154U 22083Y   23044.02237831 -.00003572  00000-0 -20654-3 0  9991,2 53154  53.2160 154.9925 0000423 105.6676 254.4363 15.08826098 32809,6917.923,95.438,540.081,539.495,0.0
53154.0,STARLINK-4077,PAYLOAD,2023-02-13 13:15:18,15.0884981,8.69e-05,53.2136,152.6143,107.3234,252.7853,0.0003466,5.234e-05,0.0,0 STARLINK-4077,1 53154U 22083Y   23044.55229357  .00005234  00000-0  34660-3 0  9990,2 53154  53.2136 152.6143 0000869 107.3234 252.7853 15.08849810 32253,6917.85,95.437,540.317,539.114,0.0
53154.0,STARLINK-4077,PAYLOAD,2023-02-13 18:01:27,15.08880771,0.0001005,53.2152,151.7216,101.9911,258.1194,0.0031403,0.00050101,0.0,0 STARLINK-4077,1 53154U 22083Y   23044.75101033  .00050101  00000-0  31403-2 0  9996,2 53154  53.2152 151.7216 0001005 101.9911 258.1194 15.08880771 32919,6917.756,95.435,540.316,538.926,0.0
53154.0,STARLINK-4077,PAYLOAD,2023-02-14 01:58:23,15.08840178,0.0001193,53.2153,150.2349,92.8952,267.2176,0.0002595,3.845e-05,0.0,0 STARLINK-4077,1 53154U 22083Y   23045.08221482  .00003845  00000-0  25950-3 0  9998,2 53154  53.2153 150.2349 0001193  92.8952 267.2176 15.08840178 32965,6917.88,95.438,540.57,538.92,0.0
53154.0,STARLINK-4077,PAYLOAD,2023-02-14 13:06:05,15.08859214,0.0001352,53.2151,148.1526,85.4531,274.6616,0.0034352,0.00054838,0.0,0 STARLINK-4077,1 53154U 22083Y   23045.54589601  .00054838  00000-0  34352-2 0  9992,2 53154  53.2151 148.1526 0001352  85.4531 274.6616 15.08859214 32405,6917.822,95.436,540.622,538.751,0.0
53154.0,STARLINK-4077,PAYLOAD,2023-02-15 00:13:47,15.08875455,8.9e-05,53.2157,146.0718,81.0905,279.0187,0.0032034,0.00051114,0.0,0 STARLINK-4077,1 53154U 22083Y   23046.00957219  .00051114  00000-0  32034-2 0  9997,2 53154  53.2157 146.0718 0000890  81.0905 279.0187 15.08875455 33109,6917.772,95.435,540.253,539.021,0.0
53154.0,STARLINK-4077,PAYLOAD,2023-02-15 11:21:29,15.08862314,0.0001353,53.2157,143.9902,95.1753,264.9394,0.0025741,0.00040942,0.0,0 STARLINK-4077,1 53154U 22083Y   23046.47325311  .00040942  00000-0  25741-2 0  9994,2 53154  53.2157 143.9902 0001353  95.1753 264.9394 15.08862314 33172,6917.812,95.436,540.613,538.741,0.0
53154.0,STARLINK-4077,PAYLOAD,2023-02-15 12:56:52,15.08876534,0.0001337,53.2157,143.6928,99.8885,260.2258,0.0038175,0.00061055,0.0,0 STARLINK-4077,1 53154U 22083Y   23046.53949220  .00061055  00000-0  38175-2 0  9995,2 53154  53.2157 143.6928 0001337  99.8885 260.2258 15.08876534 32554,6917.769,95.435,540.559,538.709,0.0
53154.0,STARLINK-4077,PAYLOAD,2023-02-15 17:43:01,15.0889924,0.0001401,53.2162,142.8005,95.9207,264.1945,0.003931,0.00062935,0.0,0 STARLINK-4077,1 53154U 22083Y   23046.73820669  .00062935  00000-0  39310-2 0  9992,2 53154  53.2162 142.8005 0001401  95.9207 264.1945 15.08899240 33213,6917.699,95.434,540.533,538.595,0.0
53154.0,STARLINK-4077,PAYLOAD,2023-02-16 12:47:39,15.0884964,0.0001573,53.2169,139.2311,72.2232,287.8931,0.0016254,0.00025682,0.0,0 STARLINK-4077,1 53154U 22083Y   23047.53309618  .00025682  00000-0  16254-2 0  9997,2 53154  53.2169 139.2311 0001573  72.2232 287.8931 15.08849640 33335,6917.851,95.437,540.804,538.628,0.0
53154.0,STARLINK-4077,PAYLOAD,2023-02-16 17:33:48,15.08871141,0.0001528,53.2171,138.3387,71.2277,288.8881,0.0018423,0.00029179,0.0,0 STARLINK-4077,1 53154U 22083Y   23047.73181222  .00029179  00000-0  18423-2 0  9993,2 53154  53.2171 138.3387 0001528  71.2277 288.8881 15.08871141 32738,6917.785,95.436,540.707,538.593,0.0
53154.0,STARLINK-4077,PAYLOAD,2023-02-17 12:38:26,15.0885335,0.0001187,53.2167,134.7728,57.5273,302.5834,0.0020089,0.0003184,0.0,0 STARLINK-4077,1 53154U 22083Y   23048.52669960  .00031840  00000-0  20089-2 0  9990,2 53154  53.2167 134.7728 0001187  57.5273 302.5834 15.08853350 32853,6917.84,95.437,540.526,538.883,0.0
53154.0,STARLINK-4077,PAYLOAD,2023-02-17 17:24:36,15.08866304,0.0001041,53.2172,133.88,48.5096,311.5986,0.0024335,0.00038682,0.0,0 STARLINK-4077,1 53154U 22083Y   23048.72541728  .00038682  00000-0  24335-2 0  9992,2 53154  53.2172 133.8800 0001041  48.5096 311.5986 15.08866304 33517,6917.8,95.436,540.385,538.945,0.0
53154.0,STARLINK-4077,PAYLOAD,2023-02-17 20:35:22,15.08812271,0.0001378,53.2171,133.2861,65.6253,294.4883,0.00046921,7.182e-05,0.0,0 STARLINK-4077,1 53154U 22083Y   23048.85790366  .00007182  00000-0  46921-3 0  9997,2 53154  53.2171 133.2861 0001378  65.6253 294.4883 15.08812271 32906,6917.965,95.439,540.783,538.877,0.0
53154.0,STARLINK-4077,PAYLOAD,2023-02-18 12:29:14,15.08834015,0.0001493,53.2167,130.3108,77.2298,282.8861,0.0016878,0.00026671,0.0,0 STARLINK-4077,1 53154U 22083Y   23049.52031171  .00026671  00000-0  16878-2 0  9995,2 53154  53.2167 130.3108 0001493  77.2298 282.8861 15.08834015 33008,6917.899,95.438,540.797,538.731,0.0
53154.0,STARLINK-4077,PAYLOAD,2023-02-18 15:40:01,15.08842111,9.47e-05,53.2165,129.7179,70.5628,289.5466,0.0020804,0.00032979,0.0,0 STARLINK-4077,1 53154U 22083Y   23049.65279205  .00032979  00000-0  20804-2 0  9993,2 53154  53.2165 129.7179 0000947  70.5628 289.5466 15.08842111 33654,6917.874,95.437,540.394,539.084,0.0
53154.0,STARLINK-4077,PAYLOAD,2023-02-18 22:01:33,15.088445,0.0001271,53.2172,128.5268,71.5991,288.5139,0.0013368,0.00021054,0.0,0 STARLINK-4077,1 53154U 22083Y   23049.91775339  .00021054  00000-0  13368-2 0  9990,2 53154  53.2172 128.5268 0001271  71.5991 288.5139 15.08844500 33697,6917.867,95.437,540.611,538.852,0.0
53154.0,STARLINK-4077,PAYLOAD,2023-02-19 12:20:01,15.08867598,0.0001136,53.2165,125.8523,68.8965,291.2148,0.001388,0.00021888,0.0,0 STARLINK-4077,1 53154U 22083Y   23050.51390653  .00021888  00000-0  13880-2 0  9994,2 53154  53.2165 125.8523 0001136  68.8965 291.2148 15.08867598 33157,6917.796,95.436,540.447,538.875,0.0
53154.0,STARLINK-4077,PAYLOAD,2023-02-19 21:52:20,15.08861274,9.7e-05,53.2174,124.068,83.9844,276.1259,0.00082348,0.0001285,0.0,0 STARLINK-4077,1 53154U 22083Y   23050.91134327  .00012850  00000-0  82348-3 0  9997,2 53154  53.2174 124.0680 0000970  83.9844 276.1259 15.08861274 33847,6917.815,95.436,540.351,539.009,0.0
53154.0,STARLINK-4077,PAYLOAD,2023-02-20 10:35:25,15.08851754,0.0001319,53.2164,121.6885,82.7403,277.374,0.00039268,5.969e-05,0.0,0 STARLINK-4077,1 53154U 22083Y   23051.44126416  .00005969  00000-0  39268-3 0  9992,2 53154  53.2164 121.6885 0001319  82.7403 277.3740 15.08851754 33921,6917.844,95.437,540.622,538.797,0.0
53154.0,STARLINK-4077,PAYLOAD,2023-02-20 12:10:48,15.08856213,0.0001224,53.216,121.3909,84.0102,276.1029,0.00064375,9.977e-05,0.0,0 STARLINK-4077,1 53154U 22083Y   23051.50750296  .00009977  00000-0  64375-3 0  9998,2 53154  53.2160 121.3909 0001224  84.0102 276.1029 15.08856213 33301,6917.831,95.437,540.543,538.849,0.0
